ORBCOMM FM20            
1 25416U 98046D   26027.53208622  .00001628  00000+0  58216-3 0  9991
2 25416  44.9924 198.3891 0000163  82.1243 277.9624 14.37791725436546
ORBCOMM FM16            
1 25417U 98046E   26027.80314476  .00002465  00000+0  82492-3 0  9990
2 25417  44.9910 185.5634 0003251 350.3464   9.7322 14.39701683436611
ORBCOMM FM15            
1 25418U 98046F   26027.83638567  .00002128  00000+0  72399-3 0  9995
2 25418  44.9942 191.2403 0003030 352.3047   7.7755 14.39323451436609
ORBCOMM FM14            
1 25419U 98046G   26027.79298286  .00002267  00000+0  76152-3 0  9996
2 25419  44.9929 188.9845 0001789 342.3737  17.7050 14.39752035436571
ORBCOMM FM13            
1 25420U 98046H   26027.55773548  .00001842  00000+0  64560-3 0  9999
2 25420  44.9945 200.3901 0004131 324.0606  35.9964 14.38333070435533
ORBCOMM FM21            
1 25475U 98053A   26027.69098360  .00001465  00000+0  52725-3 0  9995
2 25475  45.0086 285.8914 0001973 310.0503  50.0172 14.37917880429555
ORBCOMM FM22            
1 25476U 98053B   26027.69261919  .00001798  00000+0  62124-3 0  9991
2 25476  45.0065 278.7949 0003239 292.1684  67.8821 14.39125667429608
ORBCOMM FM23            
1 25477U 98053C   26027.72773903  .00001728  00000+0  61042-3 0  9998
2 25477  45.0080 287.4703 0002714 293.3038  66.7525 14.38172944429714
